start=new Date('2023-02-05T00:00:00.000Z').valueOf();
sats=[{"ECCENTRICITY":"0.00008990","MEAN_MOTION_DDOT":"0.0000000000000","OBJECT_TYPE":"PAYLOAD","MEAN_ANOMALY":"114.0512","FILE":"3772514","MEAN_MOTION_DOT":"-0.00000627","COUNTRY_CODE":"US","SEMIMAJOR_AXIS":"6941.144","OBJECT_NAME":"STARLINK-4403","SITE":"AFWTR","MEAN_MOTION":"15.01261080","TLE_LINE2":"2 53197  97.6565  98.6914 0000899 246.0618 114.0512 15.01261080 29936","PERIAPSIS":"562.385","DECAY_DATE":null,"REF_FRAME":"TEME","INCLINATION":"97.6565","ARG_OF_PERICENTER":"246.0618","EPOCH":"2023-02-04T17:50:44.693376","REV_AT_EPOCH":"2993","CENTER_NAME":"EARTH","PERIOD":"95.919","OBJECT_ID":"2022-084J","RCS_SIZE":"LARGE","MEAN_ELEMENT_THEORY":"SGP4","TIME_SYSTEM":"UTC","BSTAR":"-0.00004421500000","NORAD_CAT_ID":"53197","GP_ID":"224443550","TLE_LINE1":"1 53197U 22084J   23035.74357284 -.00000627  00000-0 -44215-4 0  9991","RA_OF_ASC_NODE":"98.6914","LAUNCH_DATE":"2022-07-22","APOAPSIS":"563.633","EPHEMERIS_TYPE":"0","ELEMENT_SET_NO":"999","CLASSIFICATION_TYPE":"U"},{"REV_AT_EPOCH":"3061","CENTER_NAME":"EARTH","RCS_SIZE":"LARGE","OBJECT_ID":"2022-084K","PERIOD":"95.919","BSTAR":"0.00018488000000","TIME_SYSTEM":"UTC","MEAN_ELEMENT_THEORY":"SGP4","TLE_LINE1":"1 53198U 22084K   23035.88058173  .00002316  00000-0  18488-3 0  9999","RA_OF_ASC_NODE":"98.8292","GP_ID":"224443799","NORAD_CAT_ID":"53198","EPHEMERIS_TYPE":"0","ELEMENT_SET_NO":"999","CLASSIFICATION_TYPE":"U","LAUNCH_DATE":"2022-07-22","APOAPSIS":"563.298","ECCENTRICITY":"0.00004130","OBJECT_TYPE":"PAYLOAD","MEAN_MOTION_DDOT":"0.0000000000000","MEAN_MOTION_DOT":"0.00002316","COUNTRY_CODE":"US","FILE":"3772514","MEAN_ANOMALY":"160.1486","OBJECT_NAME":"STARLINK-4385","SEMIMAJOR_AXIS":"6941.146","SITE":"AFWTR","DECAY_DATE":null,"PERIAPSIS":"562.725","REF_FRAME":"TEME","INCLINATION":"97.6564","ARG_OF_PERICENTER":"199.9722","MEAN_MOTION":"15.01260189","TLE_LINE2":"2 53198  97.6564  98.8292 0000413 199.9722 160.1486 15.01260189 30619","EPOCH":"2023-02-04T21:08:02.261472"},{"BSTAR":"-0.00001616200000","TIME_SYSTEM":"UTC","MEAN_ELEMENT_THEORY":"SGP4","TLE_LINE1":"1 53199U 22084L   23035.74172317 -.00000267  00000-0 -16162-4 0  9995","GP_ID":"224444045","RA_OF_ASC_NODE":"98.6906","NORAD_CAT_ID":"53199","ELEMENT_SET_NO":"999","CLASSIFICATION_TYPE":"U","EPHEMERIS_TYPE":"0","APOAPSIS":"563.459","LAUNCH_DATE":"2022-07-22","REV_AT_EPOCH":"2993","CENTER_NAME":"EARTH","RCS_SIZE":"LARGE","OBJECT_ID":"2022-084L","PERIOD":"95.919","OBJECT_NAME":"STARLINK-4395","SEMIMAJOR_AXIS":"6941.146","SITE":"AFWTR","DECAY_DATE":null,"PERIAPSIS":"562.564","INCLINATION":"97.6570","ARG_OF_PERICENTER":"224.0771","REF_FRAME":"TEME","MEAN_MOTION":"15.01260151","TLE_LINE2":"2 53199  97.6570  98.6906 0000645 224.0771 136.0402 15.01260151 29930","EPOCH":"2023-02-04T17:48:04.881888","ECCENTRICITY":"0.00006450","OBJECT_TYPE":"PAYLOAD","MEAN_MOTION_DDOT":"0.0000000000000","MEAN_MOTION_DOT":"-0.00000267","COUNTRY_CODE":"US","FILE":"3772514","MEAN_ANOMALY":"136.0402"},{"BSTAR":"0.00008619100000","TIME_SYSTEM":"UTC","MEAN_ELEMENT_THEORY":"SGP4","EPHEMERIS_TYPE":"0","ELEMENT_SET_NO":"999","CLASSIFICATION_TYPE":"U","APOAPSIS":"563.302","LAUNCH_DATE":"2022-07-22","RA_OF_ASC_NODE":"98.8264","TLE_LINE1":"1 53200U 22084M   23035.87873049  .00001048  00000-0  86191-4 0  9997","GP_ID":"224443031","NORAD_CAT_ID":"53200","REV_AT_EPOCH":"3061","CENTER_NAME":"EARTH","RCS_SIZE":"LARGE","OBJECT_ID":"2022-084M","PERIOD":"95.919","SITE":"AFWTR","OBJECT_NAME":"STARLINK-4417","SEMIMAJOR_AXIS":"6941.149","EPOCH":"2023-02-04T21:05:22.314336","DECAY_DATE":null,"ARG_OF_PERICENTER":"203.8790","PERIAPSIS":"562.725","INCLINATION":"97.6566","REF_FRAME":"TEME","TLE_LINE2":"2 53200  97.6566  98.8264 0000415 203.8790 156.2415 15.01259458 30611","MEAN_MOTION":"15.01259458","OBJECT_TYPE":"PAYLOAD","MEAN_MOTION_DDOT":"0.0000000000000","ECCENTRICITY":"0.00004150","COUNTRY_CODE":"US","MEAN_MOTION_DOT":"0.00001048","FILE":"3772514","MEAN_ANOMALY":"156.2415"},{"MEAN_ANOMALY":"125.9659","FILE":"3772514","COUNTRY_CODE":"US","MEAN_MOTION_DOT":"0.00000261","ECCENTRICITY":"0.00006840","MEAN_MOTION_DDOT":"0.0000000000000","OBJECT_TYPE":"PAYLOAD","TLE_LINE2":"2 53201  97.6569  98.6872 0000684 234.1502 125.9659 15.01259744 29938","MEAN_MOTION":"15.01259744","INCLINATION":"97.6569","DECAY_DATE":null,"PERIAPSIS":"562.538","REF_FRAME":"TEME","ARG_OF_PERICENTER":"234.1502","EPOCH":"2023-02-04T17:42:44.807040","SEMIMAJOR_AXIS":"6941.148","OBJECT_NAME":"STARLINK-4405","SITE":"AFWTR","PERIOD":"95.919","OBJECT_ID":"2022-084N","RCS_SIZE":"LARGE","CENTER_NAME":"EARTH","REV_AT_EPOCH":"2993","NORAD_CAT_ID":"53201","GP_ID":"224443050","TLE_LINE1":"1 53201U 22084N   23035.73801860  .00000261  00000-0  24901-4 0  9992","RA_OF_ASC_NODE":"98.6872","LAUNCH_DATE":"2022-07-22","APOAPSIS":"563.487","ELEMENT_SET_NO":"999","EPHEMERIS_TYPE":"0","CLASSIFICATION_TYPE":"U","MEAN_ELEMENT_THEORY":"SGP4","TIME_SYSTEM":"UTC","BSTAR":"0.00002490100000"},{"MEAN_ELEMENT_THEORY":"SGP4","BSTAR":"-0.00001827900000","TIME_SYSTEM":"UTC","LAUNCH_DATE":"2022-07-22","APOAPSIS":"567.326","EPHEMERIS_TYPE":"0","ELEMENT_SET_NO":"999","CLASSIFICATION_TYPE":"U","NORAD_CAT_ID":"53202","TLE_LINE1":"1 53202U 22084P   23035.90347534 -.00000289  00000-0 -18279-4 0  9998","RA_OF_ASC_NODE":"99.0949","GP_ID":"224443300","CENTER_NAME":"EARTH","REV_AT_EPOCH":"2997","PERIOD":"95.971","RCS_SIZE":"LARGE","OBJECT_ID":"2022-084P","SITE":"AFWTR","OBJECT_NAME":"STARLINK-4411","SEMIMAJOR_AXIS":"6943.637","EPOCH":"2023-02-04T21:41:00.269376","TLE_LINE2":"2 53202  97.6574  99.0949 0002628  92.9966 267.1559 15.00452629 29977","MEAN_MOTION":"15.00452629","PERIAPSIS":"563.677","DECAY_DATE":null,"REF_FRAME":"TEME","INCLINATION":"97.6574","ARG_OF_PERICENTER":"92.9966","MEAN_MOTION_DDOT":"0.0000000000000","OBJECT_TYPE":"PAYLOAD","ECCENTRICITY":"0.00026280","FILE":"3772514","MEAN_ANOMALY":"267.1559","MEAN_MOTION_DOT":"-0.00000289","COUNTRY_CODE":"US"},{"RCS_SIZE":"LARGE","OBJECT_ID":"2022-084Q","PERIOD":"95.919","REV_AT_EPOCH":"2993","CENTER_NAME":"EARTH","ELEMENT_SET_NO":"999","EPHEMERIS_TYPE":"0","CLASSIFICATION_TYPE":"U","APOAPSIS":"563.293","LAUNCH_DATE":"2022-07-22","RA_OF_ASC_NODE":"98.6831","TLE_LINE1":"1 53203U 22084Q   23035.73431630  .00000568  00000-0  48802-4 0  9994","GP_ID":"224444541","NORAD_CAT_ID":"53203","BSTAR":"0.00004880200000","TIME_SYSTEM":"UTC","MEAN_ELEMENT_THEORY":"SGP4","MEAN_MOTION_DOT":"0.00000568","COUNTRY_CODE":"US","FILE":"3772514","MEAN_ANOMALY":"168.8483","OBJECT_TYPE":"PAYLOAD","MEAN_MOTION_DDOT":"0.0000000000000","ECCENTRICITY":"0.00004040","EPOCH":"2023-02-04T17:37:24.928320","PERIAPSIS":"562.733","DECAY_DATE":null,"ARG_OF_PERICENTER":"191.2732","REF_FRAME":"TEME","INCLINATION":"97.6571","TLE_LINE2":"2 53203  97.6571  98.6831 0000404 191.2732 168.8483 15.01259626 29936","MEAN_MOTION":"15.01259626","SITE":"AFWTR","OBJECT_NAME":"STARLINK-4409","SEMIMAJOR_AXIS":"6941.148"},{"MEAN_ANOMALY":"130.7704","FILE":"3772514","MEAN_MOTION_DOT":"0.00000149","COUNTRY_CODE":"US","ECCENTRICITY":"0.00007810","MEAN_MOTION_DDOT":"0.0000000000000","OBJECT_TYPE":"PAYLOAD","TLE_LINE2":"2 53204  97.6567  98.6880 0000781 229.3452 130.7704 15.01257828 30596","MEAN_MOTION":"15.01257828","DECAY_DATE":null,"PERIAPSIS":"562.476","INCLINATION":"97.6567","REF_FRAME":"TEME","ARG_OF_PERICENTER":"229.3452","EPOCH":"2023-02-04T17:45:24.880320","SEMIMAJOR_AXIS":"6941.154","OBJECT_NAME":"STARLINK-4410","SITE":"AFWTR","PERIOD":"95.920","OBJECT_ID":"2022-084R","RCS_SIZE":"LARGE","CENTER_NAME":"EARTH","REV_AT_EPOCH":"3059","NORAD_CAT_ID":"53204","TLE_LINE1":"1 53204U 22084R   23035.73987130  .00000149  00000-0  16159-4 0  9991","GP_ID":"224443532","RA_OF_ASC_NODE":"98.6880","APOAPSIS":"563.561","LAUNCH_DATE":"2022-07-22","ELEMENT_SET_NO":"999","CLASSIFICATION_TYPE":"U","EPHEMERIS_TYPE":"0","MEAN_ELEMENT_THEORY":"SGP4","TIME_SYSTEM":"UTC","BSTAR":"0.00001615900000"},{"MEAN_ANOMALY":"273.6708","FILE":"3772514","COUNTRY_CODE":"US","MEAN_MOTION_DOT":"0.00000261","MEAN_MOTION_DDOT":"0.0000000000000","OBJECT_TYPE":"PAYLOAD","ECCENTRICITY":"0.00003850","EPOCH":"2023-02-04T20:44:02.661216","MEAN_MOTION":"15.01262123","TLE_LINE2":"2 53205  97.6593  98.8136 0000385  86.4560 273.6708 15.01262123 29957","DECAY_DATE":null,"INCLINATION":"97.6593","PERIAPSIS":"562.738","REF_FRAME":"TEME","ARG_OF_PERICENTER":"86.4560","SITE":"AFWTR","SEMIMAJOR_AXIS":"6941.140","OBJECT_NAME":"STARLINK-4397","PERIOD":"95.919","OBJECT_ID":"2022-084S","RCS_SIZE":"LARGE","REV_AT_EPOCH":"2995","CENTER_NAME":"EARTH","LAUNCH_DATE":"2022-07-22","APOAPSIS":"563.273","ELEMENT_SET_NO":"999","EPHEMERIS_TYPE":"0","CLASSIFICATION_TYPE":"U","NORAD_CAT_ID":"53205","RA_OF_ASC_NODE":"98.8136","TLE_LINE1":"1 53205U 22084S   23035.86391969  .00000261  00000-0  24944-4 0  9991","GP_ID":"224443551","MEAN_ELEMENT_THEORY":"SGP4","TIME_SYSTEM":"UTC","BSTAR":"0.00002494400000"},{"MEAN_MOTION":"15.01261620","TLE_LINE2":"2 53206  97.6572  98.8127 0000252 123.6822 236.4426 15.01261620 29958","ARG_OF_PERICENTER":"123.6822","DECAY_DATE":null,"PERIAPSIS":"562.832","REF_FRAME":"TEME","INCLINATION":"97.6572","EPOCH":"2023-02-04T20:49:43.719168","OBJECT_NAME":"STARLINK-4408","SEMIMAJOR_AXIS":"6941.142","SITE":"AFWTR","FILE":"3772514","MEAN_ANOMALY":"236.4426","COUNTRY_CODE":"US","MEAN_MOTION_DOT":"-0.00000411","ECCENTRICITY":"0.00002520","MEAN_MOTION_DDOT":"0.0000000000000","OBJECT_TYPE":"PAYLOAD","NORAD_CAT_ID":"53206","TLE_LINE1":"1 53206U 22084T   23035.86786712 -.00000411  00000-0 -27441-4 0  9990","RA_OF_ASC_NODE":"98.8127","GP_ID":"224443800","APOAPSIS":"563.182","LAUNCH_DATE":"2022-07-22","CLASSIFICATION_TYPE":"U","ELEMENT_SET_NO":"999","EPHEMERIS_TYPE":"0","MEAN_ELEMENT_THEORY":"SGP4","BSTAR":"-0.00002744100000","TIME_SYSTEM":"UTC","PERIOD":"95.919","RCS_SIZE":"LARGE","OBJECT_ID":"2022-084T","CENTER_NAME":"EARTH","REV_AT_EPOCH":"2995"}];
